[{"OBJECT_NAME":"STARLINK-36528","OBJECT_ID":"2026-008P","EPOCH":"2026-03-09T09:47:55.238208","MEAN_MOTION":15.27610439,"ECCENTRICITY":0.00039298,"INCLINATION":43.0003,"RA_OF_ASC_NODE":206.4144,"ARG_OF_PERICENTER":146.2409,"MEAN_ANOMALY":213.8694,"EPHEMERIS_TYPE":0,"CLASSIFICATION_TYPE":"U","NORAD_CAT_ID":67458,"ELEMENT_SET_NO":999,"REV_AT_EPOCH":953,"BSTAR":0.0012517381,"MEAN_MOTION_DOT":0.00034381,"MEAN_MOTION_DDOT":0},{"OBJECT_NAME":"CXBN","OBJECT_ID":"2012-048E","EPOCH":"2026-03-09T15:19:34.514688","MEAN_MOTION":15.19824857,"ECCENTRICITY":0.0107387,"INCLINATION":64.6612,"RA_OF_ASC_NODE":146.5396,"ARG_OF_PERICENTER":203.7806,"MEAN_ANOMALY":155.8339,"EPHEMERIS_TYPE":0,"CLASSIFICATION_TYPE":"U","NORAD_CAT_ID":38762,"ELEMENT_SET_NO":999,"REV_AT_EPOCH":10314,"BSTAR":0.00060054,"MEAN_MOTION_DOT":0.00014901,"MEAN_MOTION_DDOT":0}]
